[{"OBJECT_NAME":"GLOBALSTAR M078","OBJECT_ID":"2013-005E","EPOCH":"2026-03-05T15:05:52.035072","MEAN_MOTION":12.62275926,"ECCENTRICITY":0.0001495,"INCLINATION":51.9853,"RA_OF_ASC_NODE":238.9752,"ARG_OF_PERICENTER":65.77,"MEAN_ANOMALY":294.3322,"EPHEMERIS_TYPE":0,"CLASSIFICATION_TYPE":"U","NORAD_CAT_ID":39076,"ELEMENT_SET_NO":999,"REV_AT_EPOCH":60293,"BSTAR":-4.5734e-5,"MEAN_MOTION_DOT":-1.12e-6,"MEAN_MOTION_DDOT":0},{"OBJECT_NAME":"GLOBALSTAR M095","OBJECT_ID":"2013-005F","EPOCH":"2026-03-05T15:44:11.655744","MEAN_MOTION":12.62276201,"ECCENTRICITY":0.0001344,"INCLINATION":52.006,"RA_OF_ASC_NODE":236.3521,"ARG_OF_PERICENTER":89.7483,"MEAN_ANOMALY":270.3538,"EPHEMERIS_TYPE":0,"CLASSIFICATION_TYPE":"U","NORAD_CAT_ID":39077,"ELEMENT_SET_NO":999,"REV_AT_EPOCH":60279,"BSTAR":-2.4371e-5,"MEAN_MOTION_DOT":-1.08e-6,"MEAN_MOTION_DDOT":0},{"OBJECT_NAME":"GLOBALSTAR M087","OBJECT_ID":"2022-064A","EPOCH":"2026-03-05T19:51:28.281888","MEAN_MOTION":12.62266831,"ECCENTRICITY":6.91e-5,"INCLINATION":52.0021,"RA_OF_ASC_NODE":17.1263,"ARG_OF_PERICENTER":84.455,"MEAN_ANOMALY":275.6396,"EPHEMERIS_TYPE":0,"CLASSIFICATION_TYPE":"U","NORAD_CAT_ID":52888,"ELEMENT_SET_NO":999,"REV_AT_EPOCH":17808,"BSTAR":3.2474e-5,"MEAN_MOTION_DOT":-9.8e-7,"MEAN_MOTION_DDOT":0}]
