GLOBALSTAR M078         
1 39076U 13005E   26064.62907448 -.00000112  00000+0 -45734-4 0  9994
2 39076  51.9853 238.9752 0001495  65.7700 294.3322 12.62275926602935
GLOBALSTAR M095         
1 39077U 13005F   26064.65569046 -.00000108  00000+0 -24371-4 0  9995
2 39077  52.0060 236.3521 0001344  89.7483 270.3538 12.62276201602795
GLOBALSTAR M087         
1 52888U 22064A   26064.82741067 -.00000098  00000+0  32474-4 0  9999
2 52888  52.0021  17.1263 0000691  84.4550 275.6396 12.62266831178084
